ONEWEB-0319             
1 49105U 21075AG  24138.74871550  .00000075  00000+0  15964-3 0  9998
2 49105  87.9172 157.2400 0001722  75.2892 284.8430 13.17649390133468
ONEWEB-0323             
1 49106U 21075AH  24139.26242989 -.00000239  00000+0 -70105-3 0  9997
2 49106  87.8923 141.9576 0001911  84.1983 275.9363 13.12442460135873
ONEWEB-0329             
1 49107U 21075AJ  24139.06036359  .00000031  00000+0  47634-4 0  9998
2 49107  87.9170 157.1820 0002063  85.2841 274.8526 13.17650483134479
ONEWEB-0330             
1 49108U 21075AK  24139.06194558  .00000066  00000+0  13798-3 0  9996
2 49108  87.9170 157.1821 0002211  84.3617 275.7767 13.17650726134519
ONEWEB-0292             
1 49186U 21083A   24138.91189554  .00000412  00000+0  10934-2 0  9997
2 49186  87.8907 111.5911 0001897  84.2329 275.9016 13.13472487131129
ONEWEB-0303             
1 49187U 21083B   24138.94652139  .00000070  00000+0  14543-3 0  9996
2 49187  87.9121 126.7935 0001781  83.4808 276.6527 13.18686292129788
ONEWEB-0306             
1 49188U 21083C   24139.24054420  .00000154  00000+0  35730-3 0  9994
2 49188  87.9122 126.7225 0002213  89.7884 270.3502 13.18685923131143
ONEWEB-0307             
1 49189U 21083D   24139.36340815  .00000315  00000+0  82826-3 0  9991
2 49189  87.8908 111.5007 0002451  83.3181 276.8227 13.13472330132472
